ONEWEB-0056             
1 45159U 20008AE  24267.43520794 -.00000561  00000+0 -16445-2 0  9994
2 45159  87.8975 162.0010 0001610  70.8989 289.2312 13.10372602225448
ONEWEB-0057             
1 45160U 20008AF  24267.44185203 -.00000659  00000+0 -19237-2 0  9999
2 45160  87.8982 162.0038 0001696  74.9029 285.2286 13.10374920225612
ONEWEB-0058             
1 45161U 20008AG  24267.42871744 -.00000528  00000+0 -15497-2 0  9999
2 45161  87.8973 162.0358 0001739  78.5484 281.5838 13.10373070225685
ONEWEB-0059             
1 45162U 20008AH  24267.42525791 -.00000374  00000+0 -11081-2 0  9992
2 45162  87.8977 162.0207 0001828  77.0681 283.0650 13.10371486225582
ONEWEB-0062             
1 45163U 20008AJ  24267.45181825  .00000029  00000+0  46726-4 0  9993
2 45163  87.8980 161.9994 0002132  76.0908 284.0457 13.10378392225453
ONEWEB-0065             
1 45164U 20008AK  24267.65930421 -.00000589  00000+0 -17247-2 0  9997
2 45164  87.8983 161.9689 0001628  70.1187 290.0116 13.10370556225915
ONEWEB-0066             
1 45424U 20020A   24267.40941814 -.00000083  00000+0 -26913-3 0  9991
2 45424  87.8961 146.8975 0001446  87.9831 272.1463 13.11417873219879
ONEWEB-0067             
1 45425U 20020B   24267.59945661 -.00000811  00000+0 -23234-2 0  9997
2 45425  87.8949 146.8093 0001489  81.4678 278.6618 13.11416061219952
